NORAD_CAT_ID,OBJECT_NAME,OBJECT_TYPE,EPOCH,MEAN_MOTION,ECCENTRICITY,INCLINATION,RA_OF_ASC_NODE,ARG_OF_PERICENTER,MEAN_ANOMALY,BSTAR,MEAN_MOTION_DOT,MEAN_MOTION_DDOT,TLE_LINE0,TLE_LINE1,TLE_LINE2,SEMIMAJOR_AXIS,PERIOD,APOGEE,PERIGEE,DECAYED
53532.0,STARLINK-4483,PAYLOAD,2024-03-26 14:16:29,15.08824178,0.0001962,53.2197,35.3238,122.5547,237.5635,0.00071374,0.00011085,0.0,0 STARLINK-4483,1 53532U 22101F   24086.59478926  .00011085  00000-0  71374-3 0  9994,2 53532  53.2197  35.3238 0001962 122.5547 237.5635 15.08824178 88512,6917.929,95.439,541.151,538.436,0.0
53532.0,STARLINK-4483,PAYLOAD,2024-03-27 02:59:34,15.08867236,0.0001461,53.2179,32.9489,107.4268,252.6884,0.0017803,0.0002818,0.0,0 STARLINK-4483,1 53532U 22101F   24087.12470427  .00028180  00000-0  17803-2 0  9992,2 53532  53.2179  32.9489 0001461 107.4268 252.6884 15.08867236 88593,6917.797,95.436,540.673,538.651,0.0
53532.0,STARLINK-4483,PAYLOAD,2024-03-28 02:50:21,15.0884953,0.0001372,53.2191,28.4913,91.7868,268.3281,0.00074491,0.0001159,0.0,0 STARLINK-4483,1 53532U 22101F   24088.11830423  .00011590  00000-0  74491-3 0  9992,2 53532  53.2191  28.4913 0001372  91.7868 268.3281 15.08849530 88740,6917.851,95.437,540.665,538.767,0.0
53532.0,STARLINK-4483,PAYLOAD,2024-03-28 12:22:40,15.08851421,0.0001205,53.2179,26.7029,83.4442,276.6687,0.00070339,0.00010928,0.0,0 STARLINK-4483,1 53532U 22101F   24088.51574197  .00010928  00000-0  70339-3 0  9990,2 53532  53.2179  26.7029 0001205  83.4442 276.6687 15.08851421 88807,6917.845,95.437,540.544,538.877,0.0
53532.0,STARLINK-4483,PAYLOAD,2024-03-28 20:19:35,15.0884066,0.0001786,53.2173,25.2183,97.805,262.3145,0.00054877,8.457e-05,0.0,0 STARLINK-4483,1 53532U 22101F   24088.84694369  .00008457  00000-0  54877-3 0  9993,2 53532  53.2173  25.2183 0001786  97.8050 262.3145 15.08840660 88853,6917.878,95.438,540.979,538.508,0.0
53532.0,STARLINK-4483,PAYLOAD,2024-03-29 12:13:27,15.08846465,0.0001443,53.2187,22.2457,93.7486,266.3671,0.00058238,8.994e-05,0.0,0 STARLINK-4483,1 53532U 22101F   24089.50934286  .00008994  00000-0  58238-3 0  9993,2 53532  53.2187  22.2457 0001443  93.7486 266.3671 15.08846465 88955,6917.861,95.437,540.724,538.727,0.0
53532.0,STARLINK-4483,PAYLOAD,2024-03-29 18:34:59,15.08848425,0.000154,53.219,21.0573,94.5978,265.519,0.00029799,4.459e-05,0.0,0 STARLINK-4483,1 53532U 22101F   24089.77430176  .00004459  00000-0  29799-3 0  9993,2 53532  53.2190  21.0573 0001540  94.5978 265.5190 15.08848425 88997,6917.855,95.437,540.785,538.654,0.0
53532.0,STARLINK-4483,PAYLOAD,2024-03-30 12:04:13,15.08848449,0.0001257,53.2193,17.7847,90.1957,269.9179,0.00016578,2.352e-05,0.0,0 STARLINK-4483,1 53532U 22101F   24090.50293825  .00002352  00000-0  16578-3 0  9995,2 53532  53.2193  17.7847 0001257  90.1957 269.9179 15.08848449 89105,6917.855,95.437,540.589,538.85,0.0
53532.0,STARLINK-4483,PAYLOAD,2024-03-30 23:11:56,15.08833718,0.0001508,53.2188,15.7054,92.6587,267.4578,-4.8687e-05,-1.063e-05,0.0,0 STARLINK-4483,1 53532U 22101F   24090.96662681 -.00001063  00000-0 -48687-4 0  9992,2 53532  53.2188  15.7054 0001508  92.6587 267.4578 15.08833718 89178,6917.9,95.438,540.808,538.721,0.0
53532.0,STARLINK-4483,PAYLOAD,2024-03-31 03:58:05,15.08840005,0.0001573,53.219,14.8135,89.3295,270.7877,6.8309e-05,7.99e-06,0.0,0 STARLINK-4483,1 53532U 22101F   24091.16534496  .00000799  00000-0  68309-4 0  9993,2 53532  53.2190  14.8135 0001573  89.3295 270.7877 15.08840005 89202,6917.88,95.438,540.834,538.657,0.0
53532.0,STARLINK-4483,PAYLOAD,2024-03-31 11:55:01,15.08842684,0.0001664,53.2196,13.3261,87.0118,273.1064,0.00015605,2.197e-05,0.0,0 STARLINK-4483,1 53532U 22101F   24091.49654456  .00002197  00000-0  15605-3 0  9992,2 53532  53.2196  13.3261 0001664  87.0118 273.1064 15.08842684 89257,6917.872,95.437,540.888,538.586,0.0
53532.0,STARLINK-4483,PAYLOAD,2024-04-01 11:45:48,15.08849036,0.0001239,53.218,8.865,93.6765,266.4369,0.00031075,4.662e-05,0.0,0 STARLINK-4483,1 53532U 22101F   24092.49014037  .00004662  00000-0  31075-3 0  9996,2 53532  53.2180   8.8650 0001239  93.6765 266.4369 15.08849036 89408,6917.853,95.437,540.575,538.861,0.0
53532.0,STARLINK-4483,PAYLOAD,2024-04-01 18:07:20,15.08837337,0.0001432,53.2192,7.6752,95.4299,264.6857,-5.7183e-05,-1.198e-05,0.0,0 STARLINK-4483,1 53532U 22101F   24092.75510413 -.00001198  00000-0 -57183-4 0  9996,2 53532  53.2192   7.6752 0001432  95.4299 264.6857 15.08837337 89445,6917.889,95.438,540.744,538.763,0.0
53532.0,STARLINK-4483,PAYLOAD,2024-04-02 11:36:35,15.08838072,0.0001489,53.2174,4.4052,91.4938,268.6225,0.00010566,1.394e-05,0.0,0 STARLINK-4483,1 53532U 22101F   24093.48374533  .00001394  00000-0  10566-3 0  9997,2 53532  53.2174   4.4052 0001489  91.4938 268.6225 15.08838072 89553,6917.886,95.438,540.781,538.721,0.0
53532.0,STARLINK-4483,PAYLOAD,2024-04-02 21:08:54,15.0883861,0.0001546,53.2176,2.6195,96.1427,263.9741,9.4467e-05,1.216e-05,0.0,0 STARLINK-4483,1 53532U 22101F   24093.88118651  .00001216  00000-0  94467-4 0  9994,2 53532  53.2176   2.6195 0001546  96.1427 263.9741 15.08838610 89618,6917.885,95.438,540.819,538.68,0.0
53532.0,STARLINK-4483,PAYLOAD,2024-04-03 00:19:40,15.08840697,0.0001477,53.218,2.0244,97.9093,262.2067,0.00011543,1.55e-05,0.0,0 STARLINK-4483,1 53532U 22101F   24094.01366593  .00001550  00000-0  11543-3 0  9994,2 53532  53.2180   2.0244 0001477  97.9093 262.2067 15.08840697 89636,6917.878,95.438,540.765,538.721,0.0
53532.0,STARLINK-4483,PAYLOAD,2024-04-03 17:48:55,15.08836103,0.0001487,53.2176,358.7539,99.1569,260.9592,0.00012871,1.761e-05,0.0,0 STARLINK-4483,1 53532U 22101F   24094.74231059  .00001761  00000-0  12871-3 0  9991,2 53532  53.2176 358.7539 0001487  99.1569 260.9592 15.08836103 89749,6917.892,95.438,540.786,538.729,0.0
53532.0,STARLINK-4483,PAYLOAD,2024-04-04 03:21:14,15.08838545,0.0001476,53.218,356.9695,100.8702,259.2457,0.00012431,1.691e-05,0.0,0 STARLINK-4483,1 53532U 22101F   24095.13975038  .00001691  00000-0  12431-3 0  9991,2 53532  53.2180 356.9695 0001476 100.8702 259.2457 15.08838545 89804,6917.885,95.438,540.771,538.729,0.0
53532.0,STARLINK-4483,PAYLOAD,2024-04-04 20:50:28,15.08841821,0.0001459,53.2182,353.6981,102.1516,257.9639,0.00015005,2.101e-05,0.0,0 STARLINK-4483,1 53532U 22101F   24095.86838886  .00002101  00000-0  15005-3 0  9997,2 53532  53.2182 353.6981 0001459 102.1516 257.9639 15.08841821 89917,6917.875,95.437,540.749,538.731,0.0
53532.0,STARLINK-4483,PAYLOAD,2024-04-04 22:25:51,15.08841644,0.000145,53.2187,353.4007,103.5169,256.5985,0.00014625,2.04e-05,0.0,0 STARLINK-4483,1 53532U 22101F   24095.93462785  .00002040  00000-0  14625-3 0  9995,2 53532  53.2187 353.4007 0001450 103.5169 256.5985 15.08841644 89922,6917.875,95.437,540.743,538.737,0.0
53532.0,STARLINK-4483,PAYLOAD,2024-04-05 09:33:33,15.08845818,0.000138,53.2184,351.3198,100.1183,259.9965,0.00016553,2.348e-05,0.0,0 STARLINK-4483,1 53532U 22101F   24096.39830434  .00002348  00000-0  16553-3 0  9999,2 53532  53.2184 351.3198 0001380 100.1183 259.9965 15.08845818 89997,6917.863,95.437,540.682,538.773,0.0
53532.0,STARLINK-4483,PAYLOAD,2024-04-05 20:41:15,15.08842304,0.0001554,53.2196,349.2427,95.1992,264.9178,0.00014758,2.062e-05,0.0,0 STARLINK-4483,1 53532U 22101F   24096.86198761  .00002062  00000-0  14758-3 0  9999,2 53532  53.2196 349.2427 0001554  95.1992 264.9178 15.08842304 90064,6917.873,95.437,540.813,538.663,0.0
53532.0,STARLINK-4483,PAYLOAD,2024-04-05 22:16:38,15.08843013,0.0001374,53.22,348.9459,89.0144,271.1005,0.00015544,2.187e-05,0.0,0 STARLINK-4483,1 53532U 22101F   24096.92822622  .00002187  00000-0  15544-3 0  9998,2 53532  53.2200 348.9459 0001374  89.0144 271.1005 15.08843013 90070,6917.871,95.437,540.687,538.786,0.0
53532.0,STARLINK-4483,PAYLOAD,2024-04-06 09:24:20,15.08840636,0.0001425,53.2188,346.8581,91.562,268.5536,7.7238e-05,9.42e-06,0.0,0 STARLINK-4483,1 53532U 22101F   24097.39190871  .00000942  00000-0  77238-4 0  9990,2 53532  53.2188 346.8581 0001425  91.5620 268.5536 15.08840636 90147,6917.878,95.438,540.729,538.758,0.0
53532.0,STARLINK-4483,PAYLOAD,2024-04-06 17:21:16,15.08837154,0.0001697,53.2193,345.3766,107.5504,252.5674,-8.0614e-05,-1.571e-05,0.0,0 STARLINK-4483,1 53532U 22101F   24097.72310914 -.00001571  00000-0 -80614-4 0  9992,2 53532  53.2193 345.3766 0001697 107.5504 252.5674 15.08837154 90194,6917.889,95.438,540.928,538.58,0.0
53532.0,STARLINK-4483,PAYLOAD,2024-04-06 22:07:26,15.08853067,0.0001887,53.2197,344.4828,125.8704,234.2464,-0.00027825,-4.715e-05,0.0,0 STARLINK-4483,1 53532U 22101F   24097.92183058 -.00004715  00000-0 -27825-3 0  9998,2 53532  53.2197 344.4828 0001887 125.8704 234.2464 15.08853067 90222,6917.84,95.437,541.011,538.4,0.0
53532.0,STARLINK-4483,PAYLOAD,2024-04-07 09:15:07,15.08849664,0.0001994,53.2199,342.4023,134.2536,225.862,-0.00016521,-2.917e-05,0.0,0 STARLINK-4483,1 53532U 22101F   24098.38550762 -.00002917  00000-0 -16521-3 0  9992,2 53532  53.2199 342.4023 0001994 134.2536 225.8620 15.08849664 90290,6917.851,95.437,541.095,538.336,0.0
53532.0,STARLINK-4483,PAYLOAD,2024-04-07 21:58:13,15.08841477,0.0001614,53.2199,340.0224,98.09,262.0275,1.8962e-05,1.4e-07,0.0,0 STARLINK-4483,1 53532U 22101F   24098.91543271  .00000014  00000-0  18962-4 0  9994,2 53532  53.2199 340.0224 0001614  98.0900 262.0275 15.08841477 90370,6917.876,95.437,540.857,538.624,0.0
53532.0,STARLINK-4483,PAYLOAD,2024-04-07 23:33:36,15.08846385,0.0001799,53.2192,339.7252,97.91,262.2096,-5.2608e-05,-1.125e-05,0.0,0 STARLINK-4483,1 53532U 22101F   24098.98167104 -.00001125  00000-0 -52608-4 0  9999,2 53532  53.2192 339.7252 0001799  97.9100 262.2096 15.08846385 90380,6917.861,95.437,540.97,538.481,0.0
53532.0,STARLINK-4483,PAYLOAD,2024-04-08 09:05:54,15.08857057,0.0001452,53.2194,337.9392,95.937,264.1787,-0.0001479,-2.642e-05,0.0,0 STARLINK-4483,1 53532U 22101F   24099.37910435 -.00002642  00000-0 -14790-3 0  9990,2 53532  53.2194 337.9392 0001452  95.9370 264.1787 15.08857057 90443,6917.828,95.436,540.698,538.689,0.0
